{"type": "FeatureCollection", "features": [ {"type": "Feature", "properties": {"norad_id": 30282, "name": "FENGYUN 1C DEB", "group": "fengyun-1c-debris", "lat": 58.897039560488516, "lon": 176.34586217346467, "alt_km": 850.3579234088293, "timestamp": "2025-12-04T07:39:36.410811+00:00", "meta": {"OBJECT_NAME": "FENGYUN 1C DEB", "OBJECT_ID": "1999-025YT", "EPOCH": "2025-12-03T22:53:34.843200", "MEAN_MOTION": 14.12951472, "ECCENTRICITY": 0.02108375, "INCLINATION": 98.5015, "RA_OF_ASC_NODE": 341.6442, "ARG_OF_PERICENTER": 27.2612, "MEAN_ANOMALY": 33.2253, "EPHEMERIS_TYPE": 0, "CLASSIFICATION_TYPE": "U", "NORAD_CAT_ID": 30282, "ELEMENT_SET_NO": 999, "REV_AT_EPOCH": 97227, "BSTAR": 0.00056922787, "MEAN_MOTION_DOT": 1.268e-05, "MEAN_MOTION_DDOT": 0}, "tle": {"line1": "1 30282U 99025YT  25337.95387550  .00001268  00000+0  56923-3 0  9996", "line2": "2 30282  98.5015 341.6442 0210837  27.2612  33.2253 14.12951472972271"}}, "geometry": {"type": "Point", "coordinates": [176.34586217346467, 58.897039560488516]}}, {"type": "Feature", "properties": {"norad_id": 30283, "name": "FENGYUN 1C DEB", "group": "fengyun-1c-debris", "lat": 18.492730584264958, "lon": -30.760689956499345, "alt_km": 795.3807002160283, "timestamp": "2025-12-04T07:39:36.410821+00:00", "meta": {"OBJECT_NAME": "FENGYUN 1C DEB", "OBJECT_ID": "1999-025YU", "EPOCH": "2025-12-03T18:42:01.977120", "MEAN_MOTION": 14.0197137, "ECCENTRICITY": 0.01852723, "INCLINATION": 98.8674, "RA_OF_ASC_NODE": 331.7068, "ARG_OF_PERICENTER": 68.1247, "MEAN_ANOMALY": 108.4286, "EPHEMERIS_TYPE": 0, "CLASSIFICATION_TYPE": "U", "NORAD_CAT_ID": 30283, "ELEMENT_SET_NO": 999, "REV_AT_EPOCH": 96565, "BSTAR": 4.5338115e-05, "MEAN_MOTION_DOT": 3.9e-07, "MEAN_MOTION_DDOT": 0}, "tle": {"line1": "1 30283U 99025YU  25337.77918955  .00000039  00000+0  45338-4 0  9990", "line2": "2 30283  98.8674 331.7068 0185272  68.1247 108.4286 14.01971370965654"}}, "geometry": {"type": "Point", "coordinates": [-30.760689956499345, 18.492730584264958]}}, {"type": "Feature", "properties": {"norad_id": 30284, "name": "FENGYUN 1C DEB", "group": "fengyun-1c-debris", "lat": 28.051189371373727, "lon": -128.54473628478203, "alt_km": 768.9412365652597, "timestamp": "2025-12-04T07:39:36.410829+00:00", "meta": {"OBJECT_NAME": "FENGYUN 1C DEB", "OBJECT_ID": "1999-025YV", "EPOCH": "2025-12-03T04:19:25.627872", "MEAN_MOTION": 14.28646835, "ECCENTRICITY": 0.00382629, "INCLINATION": 98.7221, "RA_OF_ASC_NODE": 45.6247, "ARG_OF_PERICENTER": 136.064, "MEAN_ANOMALY": 280.4954, "EPHEMERIS_TYPE": 0, "CLASSIFICATION_TYPE": "U", "NORAD_CAT_ID": 30284, "ELEMENT_SET_NO": 999, "REV_AT_EPOCH": 97379, "BSTAR": 0.002047299, "MEAN_MOTION_DOT": 5.143e-05, "MEAN_MOTION_DDOT": 0}, "tle": {"line1": "1 30284U 99025YV  25337.18015773  .00005143  00000+0  20473-2 0  9994", "line2": "2 30284  98.7221  45.6247 0038262 136.0640 280.4954 14.28646835973791"}}, "geometry": {"type": "Point", "coordinates": [-128.54473628478203, 28.051189371373727]}}, {"type": "Feature", "properties": {"norad_id": 30286, "name": "FENGYUN 1C DEB", "group": "fengyun-1c-debris", "lat": -14.189075871571164, "lon": -14.852020510320793, "alt_km": 900.5474591894426, "timestamp": "2025-12-04T07:39:36.410838+00:00", "meta": {"OBJECT_NAME": "FENGYUN 1C DEB", "OBJECT_ID": "1999-025YX", "EPOCH": "2025-12-03T18:57:41.351616", "MEAN_MOTION": 14.1271845, "ECCENTRICITY": 0.00643473, "INCLINATION": 98.6901, "RA_OF_ASC_NODE": 342.4185, "ARG_OF_PERICENTER": 158.0118, "MEAN_ANOMALY": 18.4346, "EPHEMERIS_TYPE": 0, "CLASSIFICATION_TYPE": "U", "NORAD_CAT_ID": 30286, "ELEMENT_SET_NO": 999, "REV_AT_EPOCH": 97332, "BSTAR": 0.00012685496, "MEAN_MOTION_DOT": 1.98e-06, "MEAN_MOTION_DDOT": 0}, "tle": {"line1": "1 30286U 99025YX  25337.79006194  .00000198  00000+0  12685-3 0  9992", "line2": "2 30286  98.6901 342.4185 0064347 158.0118  18.4346 14.12718450973322"}}, "geometry": {"type": "Point", "coordinates": [-14.852020510320793, -14.189075871571164]}}, {"type": "Feature", "properties": {"norad_id": 30287, "name": "FENGYUN 1C DEB", "group": "fengyun-1c-debris", "lat": 75.50546435966376, "lon": -130.59383331235318, "alt_km": 867.4051996477856, "timestamp": "2025-12-04T07:39:36.410848+00:00", "meta": {"OBJECT_NAME": "FENGYUN 1C DEB", "OBJECT_ID": "1999-025YY", "EPOCH": "2025-12-03T01:36:46.221696", "MEAN_MOTION": 13.68543586, "ECCENTRICITY": 0.04138916, "INCLINATION": 98.6385, "RA_OF_ASC_NODE": 12.2636, "ARG_OF_PERICENTER": 38.0321, "MEAN_ANOMALY": 14.482, "EPHEMERIS_TYPE": 0, "CLASSIFICATION_TYPE": "U", "NORAD_CAT_ID": 30287, "ELEMENT_SET_NO": 999, "REV_AT_EPOCH": 93726, "BSTAR": 0.001171961, "MEAN_MOTION_DOT": 1.795e-05, "MEAN_MOTION_DDOT": 0}, "tle": {"line1": "1 30287U 99025YY  25337.06720164  .00001795  00000+0  11720-2 0  9995", "line2": "2 30287  98.6385  12.2636 0413891  38.0321  14.4820 13.68543586937269"}}, "geometry": {"type": "Point", "coordinates": [-130.59383331235318, 75.50546435966376]}}, {"type": "Feature", "properties": {"norad_id": 30288, "name": "FENGYUN 1C DEB", "group": "fengyun-1c-debris", "lat": -58.92196604432245, "lon": -136.676976788829, "alt_km": 795.0910771077952, "timestamp": "2025-12-04T07:39:36.410857+00:00", "meta": {"OBJECT_NAME": "FENGYUN 1C DEB", "OBJECT_ID": "1999-025YZ", "EPOCH": "2025-12-03T03:51:18.800064", "MEAN_MOTION": 14.3243385, "ECCENTRICITY": 0.00201611, "INCLINATION": 99.3964, "RA_OF_ASC_NODE": 58.0152, "ARG_OF_PERICENTER": 351.6413, "MEAN_ANOMALY": 37.7597, "EPHEMERIS_TYPE": 0, "CLASSIFICATION_TYPE": "U", "NORAD_CAT_ID": 30288, "ELEMENT_SET_NO": 999, "REV_AT_EPOCH": 97432, "BSTAR": 0.0023451604, "MEAN_MOTION_DOT": 6.316e-05, "MEAN_MOTION_DDOT": 0}, "tle": {"line1": "1 30288U 99025YZ  25337.16063426  .00006316  00000+0  23452-2 0  9997", "line2": "2 30288  99.3964  58.0152 0020161 351.6413  37.7597 14.32433850974323"}}, "geometry": {"type": "Point", "coordinates": [-136.676976788829, -58.92196604432245]}}, {"type": "Feature", "properties": {"norad_id": 30289, "name": "FENGYUN 1C DEB", "group": "fengyun-1c-debris", "lat": -34.5558625979438, "lon": -111.56067372151601, "alt_km": 832.8929814519688, "timestamp": "2025-12-04T07:39:36.410866+00:00", "meta": {"OBJECT_NAME": "FENGYUN 1C DEB", "OBJECT_ID": "1999-025ZA", "EPOCH": "2025-12-03T12:44:33.495072", "MEAN_MOTION": 14.25686526, "ECCENTRICITY": 0.00370501, "INCLINATION": 98.928, "RA_OF_ASC_NODE": 73.8522, "ARG_OF_PERICENTER": 357.9365, "MEAN_ANOMALY": 133.9761, "EPHEMERIS_TYPE": 0, "CLASSIFICATION_TYPE": "U", "NORAD_CAT_ID": 30289, "ELEMENT_SET_NO": 999, "REV_AT_EPOCH": 96950, "BSTAR": 0.0027687701, "MEAN_MOTION_DOT": 6.574e-05, "MEAN_MOTION_DDOT": 0}, "tle": {"line1": "1 30289U 99025ZA  25337.53094323  .00006574  00000+0  27688-2 0  9990", "line2": "2 30289  98.9280  73.8522 0037050 357.9365 133.9761 14.25686526969504"}}, "geometry": {"type": "Point", "coordinates": [-111.56067372151601, -34.5558625979438]}}, {"type": "Feature", "properties": {"norad_id": 30290, "name": "FENGYUN 1C DEB", "group": "fengyun-1c-debris", "lat": -76.264806714243, "lon": 141.98592045522426, "alt_km": 666.6691659767921, "timestamp": "2025-12-04T07:39:36.410875+00:00", "meta": {"OBJECT_NAME": "FENGYUN 1C DEB", "OBJECT_ID": "1999-025ZB", "EPOCH": "2025-12-03T12:33:48.812832", "MEAN_MOTION": 14.73879295, "ECCENTRICITY": 0.0016339, "INCLINATION": 102.6254, "RA_OF_ASC_NODE": 74.2589, "ARG_OF_PERICENTER": 81.6531, "MEAN_ANOMALY": 293.9908, "EPHEMERIS_TYPE": 0, "CLASSIFICATION_TYPE": "U", "NORAD_CAT_ID": 30290, "ELEMENT_SET_NO": 999, "REV_AT_EPOCH": 97743, "BSTAR": 0.0067963672, "MEAN_MOTION_DOT": 0.00044869, "MEAN_MOTION_DDOT": 0}, "tle": {"line1": "1 30290U 99025ZB  25337.52348163  .00044869  00000+0  67964-2 0  9995", "line2": "2 30290 102.6254  74.2589 0016339  81.6531 293.9908 14.73879295977432"}}, "geometry": {"type": "Point", "coordinates": [141.98592045522426, -76.264806714243]}}, {"type": "Feature", "properties": {"norad_id": 30291, "name": "FENGYUN 1C DEB", "group": "fengyun-1c-debris", "lat": -56.783898973704, "lon": 37.04917270106144, "alt_km": 794.8592972989627, "timestamp": "2025-12-04T07:39:36.410884+00:00", "meta": {"OBJECT_NAME": "FENGYUN 1C DEB", "OBJECT_ID": "1999-025ZC", "EPOCH": "2025-12-03T04:51:57.002976", "MEAN_MOTION": 14.54818439, "ECCENTRICITY": 0.01126156, "INCLINATION": 97.2337, "RA_OF_ASC_NODE": 227.2671, "ARG_OF_PERICENTER": 48.6527, "MEAN_ANOMALY": 105.3874, "EPHEMERIS_TYPE": 0, "CLASSIFICATION_TYPE": "U", "NORAD_CAT_ID": 30291, "ELEMENT_SET_NO": 999, "REV_AT_EPOCH": 97569, "BSTAR": 0.0037436703, "MEAN_MOTION_DOT": 0.00017481, "MEAN_MOTION_DDOT": 0}, "tle": {"line1": "1 30291U 99025ZC  25337.20274309  .00017481  00000+0  37437-2 0  9993", "line2": "2 30291  97.2337 227.2671 0112615  48.6527 105.3874 14.54818439975694"}}, "geometry": {"type": "Point", "coordinates": [37.04917270106144, -56.783898973704]}}, {"type": "Feature", "properties": {"norad_id": 30293, "name": "FENGYUN 1C DEB", "group": "fengyun-1c-debris", "lat": -40.76042902860512, "lon": 176.51422345831304, "alt_km": 790.3086261402077, "timestamp": "2025-12-04T07:39:36.410893+00:00", "meta": {"OBJECT_NAME": "FENGYUN 1C DEB", "OBJECT_ID": "1999-025ZE", "EPOCH": "2025-12-03T12:13:18.420672", "MEAN_MOTION": 14.48846335, "ECCENTRICITY": 0.0076558, "INCLINATION": 99.2543, "RA_OF_ASC_NODE": 167.548, "ARG_OF_PERICENTER": 142.0706, "MEAN_ANOMALY": 274.5134, "EPHEMERIS_TYPE": 0, "CLASSIFICATION_TYPE": "U", "NORAD_CAT_ID": 30293, "ELEMENT_SET_NO": 999, "REV_AT_EPOCH": 98843, "BSTAR": 0.0012741287, "MEAN_MOTION_DOT": 4.946e-05, "MEAN_MOTION_DDOT": 0}, "tle": {"line1": "1 30293U 99025ZE  25337.50924098  .00004946  00000+0  12741-2 0  9998", "line2": "2 30293  99.2543 167.5480 0076558 142.0706 274.5134 14.48846335988437"}}, "geometry": {"type": "Point", "coordinates": [176.51422345831304, -40.76042902860512]}}]}